H1 CPF  1  HTS 2022  4 17 12  6071 larets           NONE
H2  0304206 5557    27944 2022 04 17  0  0  0 2022 04 22  0  0  0   180 1 1  0 0 0
H5  0.0560 
H9 
10 0 59687  34920.00000  0   -3046010.427   -5857224.440    2502721.218
10 0 59687  35100.00000  0   -3021726.869   -5195343.470    3698119.254
10 0 59687  35280.00000  0   -2867472.628   -4346443.185    4757738.948
10 0 59687  35460.00000  0   -2584381.221   -3344816.928    5642629.824
10 0 59687  35640.00000  0   -2179277.641   -2230260.594    6320271.611
10 0 59687  35820.00000  0   -1664539.787   -1046451.525    6765764.311
10 0 59687  36000.00000  0   -1057716.186     160796.253    6962729.575
10 0 59687  36180.00000  0    -380919.241    1345328.142    6903892.640
10 0 59687  36360.00000  0     339986.508    2462428.030    6591347.800
10 0 59687  36540.00000  0    1076380.272    3470525.653    6036493.967
10 0 59687  36720.00000  0    1798026.723    4332769.605    5259640.852
10 0 59687  36900.00000  0    2474324.201    5018415.480    4289292.375
10 0 59687  37080.00000  0    3075613.339    5503971.180    3161117.689
10 0 59687  37260.00000  0    3574488.371    5774051.869    1916641.333
10 0 59687  37440.00000  0    3947049.871    5821902.085     601681.473
10 0 59687  37620.00000  0    4174024.133    5649543.146    -735392.285
10 0 59687  37800.00000  0    4241696.242    5267543.288   -2045501.106
10 0 59687  37980.00000  0    4142607.170    4694427.269   -3280712.874
10 0 59687  38160.00000  0    3875978.581    3955762.297   -4396029.976
10 0 59687  38340.00000  0    3447850.074    3082975.947   -5351025.992
10 0 59687  38520.00000  0    2870934.385    2111977.529   -6111271.771
10 0 59687  38700.00000  0    2164203.359    1081653.163   -6649506.750
10 0 59687  38880.00000  0    1352233.240      32306.589   -6946528.741
10 0 59687  39060.00000  0     464342.459    -995891.425   -6991800.295
10 0 59687  39240.00000  0    -466454.791   -1964400.341   -6783769.718
10 0 59687  39420.00000  0   -1404642.566   -2837706.883   -6329908.384
10 0 59687  39600.00000  0   -2313517.257   -3584593.633   -5646470.758
10 0 59687  39780.00000  0   -3156584.724   -4179243.117   -4757974.090
10 0 59687  39960.00000  0   -3899005.567   -4602147.684   -3696400.533
10 0 59687  40140.00000  0   -4509033.998   -4840785.387   -2500121.285
10 0 59687  40320.00000  0   -4959389.669   -4890029.014   -1212566.098
10 0 59687  40500.00000  0   -5228496.750   -4752261.521     119328.599
10 0 59687  40680.00000  0   -5301522.951   -4437183.978    1446840.160
10 0 59687  40860.00000  0   -5171156.125   -3961314.194    2721282.120
10 0 59687  41040.00000  0   -4838068.601   -3347193.767    3895841.499
10 0 59687  41220.00000  0   -4311044.432   -2622347.242    4927345.427
10 0 59687  41400.00000  0   -3606760.388   -1818046.613    5777878.564
10 0 59687  41580.00000  0   -2749239.505    -967950.813    6416183.928
10 0 59687  41760.00000  0   -1769001.690    -106681.254    6818808.800
10 0 59687  41940.00000  0    -701943.034     731604.448    6970948.093
10 0 59687  42120.00000  0     411999.468    1514573.960    6866970.834
10 0 59687  42300.00000  0    1530355.071    2212978.276    6510627.288
10 0 59687  42480.00000  0    2609751.527    2801759.494    5914924.725
10 0 59687  42660.00000  0    3607615.569    3260969.227    5101678.087
10 0 59687  42840.00000  0    4483884.391    3576469.216    4100737.038
10 0 59687  43020.00000  0    5202655.013    3740383.265    2948907.023
10 0 59687  43200.00000  0    5733708.323    3751281.206    1688588.504
10 0 59687  43380.00000  0    6053817.448    3614077.199     366179.832
10 0 59687  43560.00000  0    6147776.345    3339650.203    -969688.032
10 0 59687  43740.00000  0    6009089.733    2944202.663   -2270004.322
10 0 59687  43920.00000  0    5640291.117    2448398.322   -3487228.050
10 0 59687  44100.00000  0    5052882.411    1876329.958   -4577053.145
10 0 59687  44280.00000  0    4266905.252    1254370.609   -5500015.323
10 0 59687  44460.00000  0    3310175.968     609973.997   -6222872.657
10 0 59687  44640.00000  0    2217238.154     -29514.278   -6719727.362
10 0 59687  44820.00000  0    1028082.425    -637986.525   -6972867.172
10 0 59687  45000.00000  0    -213312.512   -1191604.424   -6973322.995
10 0 59687  45180.00000  0   -1460574.708   -1669699.133   -6721138.871
10 0 59687  45360.00000  0   -2666620.906   -2055516.754   -6225361.326
10 0 59687  45540.00000  0   -3785383.301   -2336791.753   -5503747.180
10 0 59687  45720.00000  0   -4773536.476   -2506134.481   -4582196.586
10 0 59687  45900.00000  0   -5592177.386   -2561220.303   -3493904.798
10 0 59687  46080.00000  0   -6208389.887   -2504767.920   -2278240.631
10 0 59687  46260.00000  0   -6596625.454   -2344302.464    -979372.906
10 0 59687  46440.00000  0   -6739827.666   -2091708.588     355316.231
10 0 59687  46620.00000  0   -6630235.175   -1762589.075    1676975.502
10 0 59687  46800.00000  0   -6269809.532   -1375457.279    2937115.006
10 0 59687  46980.00000  0   -5670255.585    -950805.147    4089437.130
10 0 59687  47160.00000  0   -4852631.375    -510093.780    5091585.151
10 0 59687  47340.00000  0   -3846567.066     -74721.902    5906724.723
10 0 59687  47520.00000  0   -2689144.887     334975.602    6504903.380
10 0 59687  47700.00000  0   -1423483.336     700651.420    6864142.433
10 0 59687  47880.00000  0     -97091.969    1006749.739    6971226.885
10 0 59687  48060.00000  0    1239935.345    1241162.126    6822176.108
10 0 59687  48240.00000  0    2536826.767    1395710.664    6422391.308
10 0 59687  48420.00000  0    3744078.503    1466440.590    5786475.659
10 0 59687  48600.00000  0    4815376.168    1453711.231    4937726.249
10 0 59687  48780.00000  0    5709417.317    1362083.476    3907307.208
10 0 59687  48960.00000  0    6391570.603    1200008.758    2733118.711
10 0 59687  49140.00000  0    6835282.078     979329.509    1458386.986
10 0 59687  49320.00000  0    7023161.650     714615.558     130035.373
10 0 59687  49500.00000  0    6947690.240     422370.892   -1203101.274
10 0 59687  49680.00000  0    6611506.374     120152.347   -2492136.948
10 0 59687  49860.00000  0    6027260.245    -174351.648   -3689976.642
10 0 59687  50040.00000  0    5217056.392    -444231.388   -4753058.879
10 0 59687  50220.00000  0    4211521.192    -674205.936   -5642923.968
10 0 59687  50400.00000  0    3048561.360    -851372.753   -6327550.852
10 0 59687  50580.00000  0    1771878.696    -965828.529   -6782432.727
10 0 59687  50760.00000  0     429308.949   -1011134.711   -6991367.971
10 0 59687  50940.00000  0    -928950.560    -984616.816   -6946966.394
10 0 59687  51120.00000  0   -2252171.649    -887488.098   -6650870.811
10 0 59687  51300.00000  0   -3490934.631    -724795.920   -6113694.996
10 0 59687  51480.00000  0   -4598924.659    -505192.907   -5354682.462
10 0 59687  51660.00000  0   -5534646.021    -240539.701   -4401089.677
10 0 59687  51840.00000  0   -6262996.162      54649.209   -3287289.501
10 0 59687  52020.00000  0   -6756640.322     363899.678   -2053605.404
10 0 59687  52200.00000  0   -6997118.445     669586.585    -744898.150
10 0 59687  52380.00000  0   -6975621.702     953820.072     591057.243
10 0 59687  52560.00000  0   -6693379.254    1199364.830    1905339.480
10 0 59687  52740.00000  0   -6161635.992    1390545.699    3149714.067
10 0 59687  52920.00000  0   -5401210.388    1514089.826    4278456.997
10 0 59687  53100.00000  0   -4441649.419    1559858.765    5250077.631
10 0 59687  53280.00000  0   -3320033.897    1521433.065    6028864.356
10 0 59687  53460.00000  0   -2079497.355    1396521.828    6586201.394
10 0 59687  53640.00000  0    -767518.912    1187178.675    6901611.439
10 0 59687  53820.00000  0     565929.679     899812.877    6963485.826
10 0 59687  54000.00000  0    1870304.927     544996.510    6769497.752
10 0 59687  54180.00000  0    3096421.365     137074.368    6326693.498
10 0 59687  54360.00000  0    4198329.049    -306412.480    5651257.135
10 0 59687  54540.00000  0    5135073.997    -765471.350    4767945.397
10 0 59687  54720.00000  0    5872273.235   -1218542.663    3709203.566
10 0 59687  54900.00000  0    6383440.903   -1643488.760    2513981.591
10 0 59687  55080.00000  0    6651000.336   -2018640.822    1226283.048
10 0 59687  55260.00000  0    6666927.563   -2323851.388    -106496.882
10 0 59687  55440.00000  0    6432990.549   -2541498.584   -1435376.779
10 0 59687  55620.00000  0    5960568.578   -2657384.698   -2711653.468
10 0 59687  55800.00000  0    5270066.085   -2661482.567   -3888733.467
10 0 59687  55980.00000  0    4389966.398   -2548493.117   -4923847.394
10 0 59687  56160.00000  0    3355584.230   -2318193.614   -5779582.266
10 0 59687  56340.00000  0    2207586.079   -1975563.575   -6425173.471
10 0 59687  56520.00000  0     990363.303   -1530691.333   -6837530.168
10 0 59687  56700.00000  0    -249683.288    -998468.349   -7001980.141
10 0 59687  56880.00000  0   -1465880.926    -398088.602   -6912723.091
10 0 59687  57060.00000  0   -2612992.278     247630.731   -6573001.105
10 0 59687  57240.00000  0   -3648847.729     913090.484   -5994985.876
10 0 59687  57420.00000  0   -4535860.517    1570888.680   -5199390.572
10 0 59687  57600.00000  0   -5242390.361    2192912.841   -4214803.914
10 0 59687  57780.00000  0   -5743905.091    2751514.149   -3076743.214
10 0 59687  57960.00000  0   -6023889.097    3220712.795   -1826441.233
10 0 59687  58140.00000  0   -6074456.442    3577385.042    -509394.227
10 0 59687  58320.00000  0   -5896625.102    3802373.421     826288.490
10 0 59687  58500.00000  0   -5500225.829    3881457.004    2131671.457
10 0 59687  58680.00000  0   -4903436.370    3806125.410    3358833.883
10 0 59687  58860.00000  0   -4131968.355    3574114.388    4462678.174
10 0 59687  59040.00000  0   -3217946.781    3189671.615    5402627.101
10 0 59687  59220.00000  0   -2198542.144    2663542.102    6144135.848
99
